[{"OBJECT_NAME":"SITRO-AIS 18","OBJECT_ID":"2024-199BH","EPOCH":"2026-03-09T22:56:51.354816","MEAN_MOTION":14.97350577,"ECCENTRICITY":0.00069154,"INCLINATION":97.331,"RA_OF_ASC_NODE":274.6581,"ARG_OF_PERICENTER":53.7115,"MEAN_ANOMALY":306.4746,"EPHEMERIS_TYPE":0,"CLASSIFICATION_TYPE":"U","NORAD_CAT_ID":61790,"ELEMENT_SET_NO":999,"REV_AT_EPOCH":11718,"BSTAR":0.00032194999,"MEAN_MOTION_DOT":3.687e-5,"MEAN_MOTION_DDOT":0},{"OBJECT_NAME":"STARLINK-34649","OBJECT_ID":"2025-150J","EPOCH":"2026-03-09T13:11:06.449280","MEAN_MOTION":14.98332147,"ECCENTRICITY":0.00033215,"INCLINATION":70.0024,"RA_OF_ASC_NODE":134.9019,"ARG_OF_PERICENTER":258.4155,"MEAN_ANOMALY":101.6631,"EPHEMERIS_TYPE":0,"CLASSIFICATION_TYPE":"U","NORAD_CAT_ID":64798,"ELEMENT_SET_NO":999,"REV_AT_EPOCH":3738,"BSTAR":8.417142e-5,"MEAN_MOTION_DOT":9.12e-6,"MEAN_MOTION_DDOT":0}]
